{"type":"FeatureCollection","features":[{"type":"Feature","properties":{"slug":"tibetan-plateau","name":"Tibetan Plateau","family":"plateaus-basins","kind":"plateau","source":"Natural Earth 10m geography_regions_polys: PLATEAU OF TIBET"},"geometry":{"type":"Polygon","coordinates":[[[103.6489,36.664],[103.7521,36.2443],[103.8439,35.8841],[103.9905,35.3093],[103.9491,34.3624],[104.1122,33.1089],[104.0431,31.8634],[103.8836,31.376],[103.8604,31.3381],[103.4243,30.9791],[103.0819,30.4409],[103.226,30.0619],[103.1213,29.6996],[102.9097,29.3311],[102.5128,28.942],[102.2238,28.8277],[101.9649,28.7252],[101.953,28.7234],[101.4778,28.6508],[99.3635,27.6663],[99.1764,27.5849],[98.9388,27.4816],[98.7559,27.402],[96.2835,27.9557],[95.6544,28.2843],[95.5455,28.3411],[95.3103,28.1748],[95.3103,28.1748],[95.3269,28.1443],[94.9087,27.8022],[94.3472,27.3429],[93.8301,27.1243],[91.6824,26.8598],[89.6455,26.9029],[89.59,26.9041],[89.5442,26.915],[89.1956,26.9239],[88.9857,27.0381],[88.8351,27.1199],[88.6529,27.137],[88.6528,27.137],[88.2512,26.9883],[87.7805,26.904],[87.4592,26.9557],[87.0188,27.0266],[85.3369,27.2974],[84.6658,27.5731],[83.8593,27.7014],[83.7295,27.7468],[83.5014,27.8747],[83.2974,27.9519],[82.4868,28.0145],[82.398,28.049],[82.0001,28.3787],[79.3051,29.9589],[77.314,31.1263],[75.9491,32.2261],[75.9491,32.2261],[75.921,32.1893],[74.9668,32.8718],[74.7128,33.0749],[74.5214,33.2281],[74.0759,33.5845],[73.5057,34.1262],[73.4857,34.1452],[73.4819,34.1487],[73.0365,34.4457],[73.4225,35.9899],[74.6104,37.4154],[74.7491,37.4594],[75.1104,37.574],[76.0825,37.8824],[76.9116,38.0201],[77.0184,38.0378],[78.7249,37.2218],[79.7493,37.0215],[80.5231,36.6299],[80.6316,36.575],[80.6738,36.5612],[80.8428,36.5058],[81.1403,36.4083],[81.1625,36.4143],[82.135,36.6799],[83.3261,36.7967],[83.4022,36.8169],[83.6707,36.888],[85.2001,37.2934],[85.7083,37.5953],[87.0383,38.3855],[87.1742,38.3855],[87.5624,38.3855],[87.9127,38.6406],[88.3491,38.9584],[89.2608,39.1064],[89.9296,39.2149],[95.6351,40.1407],[95.6547,40.1391],[96.4387,40.0739],[96.4545,40.0726],[96.6168,40.0591],[96.8196,40.0283],[97.4359,39.9345],[98.5301,39.768],[98.9365,39.7062],[98.9689,39.7012],[99.051,39.6887],[99.3693,39.5474],[99.5274,39.4772],[99.6972,39.4018],[99.8411,39.338],[100.4454,38.873],[100.9559,38.4802],[100.9956,38.4729],[101.7443,38.3344],[102.2383,38.243],[102.2843,38.2105],[102.5972,37.9894],[102.8645,37.7086],[103.1286,37.4312],[103.5753,36.9635],[103.6489,36.664]]]}},{"type":"Feature","properties":{"slug":"deccan-plateau","name":"Deccan Plateau","family":"plateaus-basins","kind":"plateau","source":"Natural Earth 10m geography_regions_polys"},"geometry":{"type":"Polygon","coordinates":[[[78.9251,19.8097],[79.1719,19.7744],[79.2597,19.7961],[80.3214,19.8444],[81.1179,19.7542],[81.1577,19.73],[81.1896,19.6967],[81.2147,19.6517],[81.2498,19.5178],[81.2639,19.2835],[81.2339,19.0526],[81.1725,18.9112],[81.0845,18.7882],[80.6511,18.3465],[80.5689,18.2153],[80.4452,17.7897],[80.3817,17.697],[79.9393,17.2696],[79.7987,17.1337],[78.5462,15.9237],[78.5313,15.9028],[78.5211,15.8787],[78.3793,15.2008],[78.3814,15.1301],[78.4849,14.7716],[78.4868,14.6962],[78.4751,14.6126],[78.3552,14.2034],[78.1951,13.855],[78.1851,13.7482],[78.3043,13.1678],[78.3008,13.0578],[78.2686,12.9815],[78.0997,12.7966],[77.8494,12.6141],[77.5863,12.4881],[77.4716,12.4634],[76.8872,12.549],[76.4584,12.7216],[76.2786,12.848],[76.1426,13.0038],[76.0658,13.1906],[76.0577,13.2797],[76.1284,13.6849],[76.1144,13.7669],[76.074,13.8522],[75.5397,14.4244],[75.4783,14.539],[75.4401,14.6724],[75.3934,15.2197],[75.3486,15.4004],[75.0785,15.969],[75.0414,16.5037],[74.4424,17.5874],[74.2094,18.3178],[74.1974,18.5395],[74.2301,18.7279],[74.2988,18.8942],[74.4004,19.0431],[74.8263,19.4338],[75.0827,19.8664],[75.1853,19.9582],[75.3705,20.0601],[75.5608,20.112],[75.9762,20.1135],[76.1245,20.0822],[76.3972,19.9807],[76.5437,19.9496],[78.9251,19.8097]]]}},{"type":"Feature","properties":{"slug":"iranian-plateau","name":"Iranian Plateau","family":"plateaus-basins","kind":"plateau","source":"hand outline (see _geo_base.HAND_POLYGONS)"},"geometry":{"type":"Polygon","coordinates":[[[45.0,36.0],[46.0,39.0],[52.0,38.0],[58.0,37.5],[63.0,36.0],[69.0,35.0],[70.0,31.0],[66.0,27.0],[61.0,25.5],[56.0,26.0],[52.0,27.0],[48.0,29.0],[45.0,32.0],[45.0,36.0]]]}},{"type":"Feature","properties":{"slug":"anatolian-plateau","name":"Anatolian Plateau","family":"plateaus-basins","kind":"plateau","source":"hand outline (see _geo_base.HAND_POLYGONS)"},"geometry":{"type":"Polygon","coordinates":[[[30.0,39.3],[34.0,40.0],[38.0,39.5],[38.5,38.0],[37.0,37.2],[34.0,37.0],[31.0,37.6],[29.5,38.5],[30.0,39.3]]]}},{"type":"Feature","properties":{"slug":"mongolian-plateau","name":"Mongolian Plateau","family":"plateaus-basins","kind":"plateau","source":"Natural Earth 10m geography_regions_polys"},"geometry":{"type":"Polygon","coordinates":[[[108.9594,50.5288],[110.2495,49.9714],[110.468,49.7985],[110.5494,49.7512],[110.6028,49.738],[110.6212,49.7335],[110.6453,49.735],[110.6909,49.7379],[111.1063,49.8248],[111.4066,49.8027],[111.9209,49.6817],[112.0581,49.681],[112.3099,49.7256],[112.3772,49.7174],[112.4213,49.6912],[112.4868,49.6182],[112.5317,49.588],[112.6006,49.5729],[112.7706,49.5792],[112.8222,49.5525],[112.9069,49.4507],[112.9336,49.4186],[112.9703,49.3876],[113.0138,49.379],[113.0681,49.4025],[113.1416,49.4484],[113.156,49.4486],[113.2031,49.3955],[113.2456,49.3704],[113.4666,49.2993],[113.9219,49.0759],[114.3174,49.0264],[114.4163,48.9693],[114.4872,48.8804],[114.536,48.7649],[114.7149,47.8198],[114.7411,47.7563],[114.9762,47.1882],[115.1636,45.3093],[115.1361,45.1086],[115.0711,44.9254],[115.1841,44.105],[115.182,43.8596],[115.1305,43.6176],[115.011,43.3889],[114.9409,43.3303],[113.9849,42.7785],[113.9205,42.7108],[113.8029,42.6481],[111.3224,42.0018],[107.6826,42.4036],[106.8313,42.289],[106.6945,42.2961],[106.564,42.3265],[106.4598,42.3295],[105.4744,41.989],[105.2329,42.0194],[103.2905,41.8495],[103.1521,41.8719],[102.8851,41.9616],[99.031,42.363],[97.4082,43.0626],[97.3364,43.0865],[97.3215,43.1595],[97.4638,43.6212],[97.4775,43.6659],[97.4818,43.7769],[97.4368,43.854],[97.4802,43.9226],[97.8066,43.9818],[98.26,44.064],[99.7421,44.3328],[99.781,44.3689],[99.7769,44.4057],[99.9121,44.4744],[100.5396,44.7931],[100.8635,44.9576],[100.9053,45.0409],[100.9229,45.126],[101.0086,45.2002],[101.7837,45.4886],[101.8737,45.5456],[101.9847,45.6585],[102.1231,45.7993],[102.2055,45.9388],[102.2321,46.0222],[102.252,46.2009],[102.2426,46.353],[102.1548,46.6398],[101.9452,47.0221],[101.6643,47.2994],[101.6384,47.3474],[101.6251,47.4006],[101.629,47.4482],[101.6765,47.5709],[101.7923,47.749],[101.8357,47.8156],[101.9258,47.9036],[103.0206,48.6409],[103.2999,48.7648],[103.5087,48.8138],[103.6057,48.8193],[104.4662,48.6096],[104.6475,48.6354],[104.8372,48.7398],[105.5966,49.3375],[105.766,49.3805],[105.9192,49.3204],[105.9736,49.334],[106.3334,49.9023],[106.5195,50.1964],[106.5867,50.2271],[106.6869,50.2236],[106.8063,50.2559],[107.4707,50.5664],[108.6531,50.6611],[108.7561,50.6166],[108.9594,50.5288]]]}},{"type":"Feature","properties":{"slug":"mexican-plateau","name":"Mexican Plateau","family":"plateaus-basins","kind":"plateau","source":"Natural Earth 10m geography_regions_polys: ALTI-PLANICIE MEXICANA"},"geometry":{"type":"Polygon","coordinates":[[[-99.4917,20.6664],[-99.7392,20.5469],[-99.841,20.2695],[-100.0262,20.1108],[-100.1188,20.0487],[-100.2117,20.0423],[-100.2955,19.9515],[-100.3238,19.9208],[-100.4813,19.9097],[-100.6054,20.0035],[-100.8038,20.0912],[-100.8959,20.1658],[-101.026,20.3297],[-101.1029,20.4843],[-101.2233,20.5626],[-101.2702,20.5554],[-101.3351,20.5456],[-101.4369,20.3628],[-101.4455,20.3473],[-101.4463,20.3472],[-101.5746,20.3225],[-101.631,20.2585],[-101.6873,20.2199],[-101.7081,20.2058],[-101.8934,20.2001],[-101.9365,20.3331],[-102.012,20.3666],[-102.288,20.3614],[-102.3593,20.352],[-102.4215,20.3438],[-102.5922,20.2678],[-102.7308,20.2141],[-102.7515,20.2061],[-103.0682,20.1982],[-103.067,20.2227],[-103.0444,20.6917],[-103.0179,20.9232],[-103.0531,21.0527],[-102.6879,21.3808],[-102.2969,21.8823],[-102.2223,22.3756],[-102.6144,22.8348],[-103.1965,22.9406],[-103.4611,23.4433],[-104.3262,23.9272],[-104.8232,24.7085],[-105.3132,25.5071],[-105.3386,25.5608],[-105.3512,25.5873],[-105.5513,26.0098],[-105.9776,26.6742],[-106.4013,27.0378],[-106.4413,27.0721],[-106.781,27.3637],[-107.2281,28.0106],[-107.7738,28.9467],[-107.7209,29.37],[-108.0191,30.1156],[-108.1442,30.4283],[-108.784,31.0856],[-108.8157,31.3343],[-108.2072,31.366],[-108.2072,31.7841],[-106.8742,31.7841],[-106.3595,31.7189],[-105.8812,31.3023],[-105.4872,30.948],[-104.8807,30.5123],[-104.6988,30.059],[-104.6505,29.952],[-104.5873,29.8122],[-104.5447,29.7178],[-104.5067,29.6909],[-104.252,29.51],[-104.0435,29.3407],[-104.0201,29.3217],[-103.5433,29.1332],[-103.5308,29.1282],[-103.2612,29.0208],[-103.1881,28.9916],[-103.1965,28.4175],[-103.223,27.8883],[-103.3817,27.3591],[-103.4082,26.6977],[-103.2806,26.2967],[-102.7675,25.7831],[-102.4993,25.4654],[-102.254,25.1749],[-101.3303,24.8862],[-100.683,24.3958],[-100.5713,23.9049],[-100.095,23.2434],[-100.07,22.5128],[-99.9136,21.8077],[-99.8099,21.2208],[-99.4917,20.6664]]]}},{"type":"Feature","properties":{"slug":"colorado-plateau","name":"Colorado Plateau","family":"plateaus-basins","kind":"plateau","source":"Natural Earth 10m geography_regions_polys"},"geometry":{"type":"Polygon","coordinates":[[[-106.6641,35.6417],[-106.6778,35.4018],[-106.7108,34.8232],[-106.9391,34.1666],[-107.3593,33.6739],[-108.2242,33.6317],[-108.3841,33.9216],[-109.0433,34.4139],[-109.3,34.4626],[-109.5592,34.5117],[-110.0228,34.4323],[-110.6225,34.6263],[-110.8307,34.7868],[-111.021,34.9334],[-111.4868,35.4272],[-112.5942,35.2366],[-112.9636,35.3268],[-113.0566,35.3496],[-113.6692,35.7817],[-113.8343,36.2817],[-113.876,36.4485],[-113.9592,36.7816],[-113.639,37.2019],[-113.1992,37.5767],[-113.1925,37.5805],[-112.7342,37.8416],[-112.4569,38.243],[-111.9692,38.4316],[-111.7142,38.6516],[-111.3242,38.9616],[-111.1492,39.3416],[-110.9576,39.9356],[-110.7592,40.3566],[-110.4892,40.4616],[-109.8342,40.5966],[-109.4142,40.6816],[-108.9442,40.7866],[-108.8141,40.6316],[-108.3591,40.5066],[-107.8342,40.2416],[-107.6392,39.9866],[-107.4991,39.4716],[-107.4791,38.8817],[-107.5392,38.4816],[-107.5749,38.4617],[-107.9241,38.2667],[-108.1191,38.1317],[-108.4941,37.8266],[-108.5242,37.5166],[-108.4202,37.4738],[-108.0991,37.3416],[-107.5342,37.2567],[-107.4075,37.0294],[-107.3641,36.9517],[-107.1041,36.4416],[-107.0175,36.2587],[-106.9241,36.0616],[-106.6641,35.6417]]]}},{"type":"Feature","properties":{"slug":"altiplano","name":"Altiplano","family":"plateaus-basins","kind":"plateau","source":"Natural Earth 10m geography_regions_polys"},"geometry":{"type":"Polygon","coordinates":[[[-66.3252,-21.9435],[-66.2313,-22.0715],[-66.2103,-22.0665],[-65.8358,-21.9784],[-65.7786,-21.9649],[-65.4058,-21.7519],[-65.4058,-22.3291],[-65.4058,-22.6573],[-65.7051,-23.256],[-66.0715,-23.9889],[-66.6046,-24.9225],[-67.0279,-25.9544],[-68.2715,-27.0391],[-68.933,-26.8011],[-69.0652,-26.0867],[-68.6899,-25.3697],[-68.6188,-24.6438],[-68.6016,-24.4683],[-68.0592,-24.0904],[-67.867,-23.9565],[-67.8658,-22.9822],[-68.3597,-22.2591],[-68.6871,-20.9931],[-68.8407,-20.4553],[-69.0409,-19.7546],[-69.0598,-19.6884],[-69.4734,-18.5441],[-69.6189,-18.1415],[-69.9971,-17.1437],[-70.3635,-16.3739],[-70.4657,-16.1592],[-71.4244,-15.5202],[-71.5043,-14.8809],[-71.4994,-13.9688],[-70.6255,-14.1619],[-69.9597,-14.4015],[-69.6722,-14.4782],[-69.6538,-14.4832],[-69.5602,-14.5081],[-69.4757,-14.5746],[-68.4966,-15.3454],[-68.3086,-15.4935],[-67.6909,-16.1299],[-67.4297,-16.399],[-67.4524,-16.5517],[-67.4711,-16.678],[-67.5362,-17.118],[-67.0642,-17.6845],[-67.0037,-17.7571],[-66.8606,-18.1643],[-66.6574,-18.7425],[-66.5775,-20.0208],[-66.5775,-20.6111],[-66.5775,-21.0861],[-66.5774,-21.087],[-66.5243,-21.6721],[-66.3252,-21.9435]]]}},{"type":"Feature","properties":{"slug":"brazilian-highlands","name":"Brazilian Highlands","family":"plateaus-basins","kind":"highlands","source":"Natural Earth 10m geography_regions_polys"},"geometry":{"type":"MultiPolygon","coordinates":[[[[-40.3029,-2.8082],[-40.2354,-2.8132],[-40.1918,-2.821],[-40.1004,-2.8684],[-40.0955,-2.8709],[-39.8217,-3.0129],[-39.1467,-3.3628],[-38.9172,-3.4818],[-38.896,-3.5018],[-38.6862,-3.6537],[-38.6784,-3.6561],[-37.8444,-4.4438],[-37.6606,-4.554],[-37.6263,-4.5921],[-37.5495,-4.6207],[-37.5148,-4.6415],[-37.2434,-4.8043],[-37.1747,-4.9124],[-37.0264,-4.9288],[-36.8526,-4.992],[-36.8017,-5.0105],[-36.7474,-5.0507],[-36.5907,-5.0976],[-36.5667,-5.096],[-36.4686,-5.1316],[-35.6211,-5.2306],[-35.2687,-5.6684],[-35.1782,-5.7808],[-35.1417,-5.9172],[-35.0955,-6.1854],[-34.9882,-6.3937],[-34.9296,-6.7851],[-34.9014,-6.8549],[-34.8873,-7.1876],[-34.9257,-8.2379],[-34.9667,-8.4076],[-35.0441,-8.6195],[-35.645,-9.4608],[-35.8293,-9.7188],[-35.8301,-9.719],[-35.8908,-9.687],[-35.856,-9.7561],[-35.933,-9.864],[-35.9924,-9.9471],[-36.67,-10.6111],[-36.7683,-10.6717],[-36.9378,-10.8204],[-37.0385,-10.9721],[-37.1473,-11.0787],[-37.1828,-11.0685],[-37.1821,-11.1217],[-37.3386,-11.392],[-37.356,-11.4039],[-37.3549,-11.3505],[-37.3316,-11.3099],[-37.3208,-11.2666],[-37.3218,-11.2151],[-37.3592,-11.2525],[-37.4385,-11.3938],[-37.4118,-11.4973],[-37.4332,-11.5555],[-38.0032,-12.54],[-38.2082,-12.7322],[-38.4567,-12.9652],[-38.4989,-12.9566],[-38.5249,-12.7623],[-38.654,-12.6446],[-38.691,-12.6239],[-38.7439,-12.7485],[-38.788,-12.7827],[-38.8518,-12.7901],[-38.7836,-12.8444],[-38.7637,-12.9072],[-38.8332,-13.0329],[-38.8353,-13.1472],[-38.9592,-13.273],[-39.0309,-13.3651],[-39.0674,-13.4805],[-39.0894,-13.5882],[-39.0349,-13.5588],[-39.0091,-13.5814],[-38.9886,-13.615],[-39.0012,-13.6646],[-39.0411,-13.7581],[-39.0349,-13.991],[-39.0481,-14.0439],[-39.0085,-14.1012],[-38.9665,-14.0034],[-38.9423,-14.0307],[-39.0596,-14.6548],[-39.0134,-14.9356],[-38.9983,-15.2144],[-39.0086,-15.3445],[-39.0518,-16.4691],[-39.0632,-16.5044],[-39.1177,-16.7329],[-39.5378,-16.8262],[-40.4903,-17.6729],[-40.3315,-18.7841],[-40.3184,-19.9084],[-40.3138,-20.3012],[-40.6313,-20.7951],[-40.6483,-20.8085],[-40.7271,-20.8462],[-40.7893,-20.9061],[-40.7952,-20.9248],[-41.1019,-21.1675],[-41.3446,-21.3597],[-41.478,-21.4653],[-42.0425,-22.2768],[-43.0179,-22.6059],[-43.4536,-22.7529],[-43.8459,-22.9175],[-43.8662,-22.9105],[-44.0475,-22.9447],[-44.148,-23.011],[-44.3679,-23.005],[-44.6373,-23.0555],[-44.6812,-23.1069],[-44.6738,-23.2066],[-44.6211,-23.2285],[-44.6101,-23.2382],[-44.9512,-23.3814],[-44.9517,-23.3814],[-44.952,-23.3817],[-45.4292,-23.582],[-45.8202,-23.7638],[-45.8432,-23.7637],[-45.9721,-23.7955],[-46.6308,-24.1104],[-46.8673,-24.2363],[-46.8972,-24.2648],[-46.9461,-24.2875],[-47.3757,-24.6441],[-47.5922,-24.7811],[-47.8312,-24.9529],[-47.8766,-24.9975],[-47.9143,-24.9999],[-47.9892,-25.0357],[-47.9594,-25.0654],[-47.9083,-25.0682],[-47.9129,-25.0899],[-48.194,-25.3232],[-48.1859,-25.3099],[-48.2735,-25.3063],[-48.4025,-25.2721],[-48.4585,-25.3107],[-48.4276,-25.4033],[-48.4761,-25.443],[-48.5642,-25.4475],[-48.644,-25.4365],[-48.7317,-25.3687],[-48.6922,-25.4915],[-48.507,-25.5213],[-48.4299,-25.5502],[-48.4012,-25.5974],[-48.5452,-25.8159],[-48.6658,-25.8443],[-48.679,-25.8752],[-48.6128,-25.875],[-48.5763,-25.9354],[-48.6194,-26.1794],[-48.679,-26.2258],[-48.7138,-26.227],[-48.7483,-26.2687],[-48.7007,-26.3483],[-48.6516,-26.4064],[-48.6582,-26.5191],[-48.6765,-26.6124],[-48.6777,-26.7029],[-48.6157,-26.8781],[-48.5992,-27.0112],[-48.7296,-28.3565],[-48.7973,-28.4427],[-48.7997,-28.5753],[-49.0236,-28.6986],[-49.2713,-28.8712],[-49.4999,-29.0754],[-49.746,-29.3632],[-50.0333,-29.801],[-50.1106,-29.9824],[-52.4326,-29.7089],[-53.0845,-29.6321],[-53.9416,-29.5237],[-55.1776,-29.3674],[-56.2065,-27.8858],[-56.3521,-27.7647],[-56.5992,-27.5592],[-57.1717,-27.0829],[-57.3425,-25.6887],[-57.2119,-24.8696],[-57.2286,-24.7901],[-57.2287,-24.7897],[-57.5108,-23.4497],[-57.6352,-22.8588],[-57.7257,-21.3669],[-57.7411,-21.1125],[-57.2648,-20.0013],[-57.1702,-20.019],[-57.0677,-20.0382],[-55.5715,-20.3188],[-55.1941,-19.1283],[-54.9397,-18.326],[-54.9015,-18.2057],[-54.8836,-18.1492],[-53.9899,-18.0002],[-53.9311,-17.9904],[-52.9786,-16.985],[-52.2302,-16.3046],[-52.0371,-16.1291],[-51.8144,-15.9267],[-51.6028,-15.6939],[-51.1294,-15.1731],[-50.7561,-14.7625],[-49.3497,-11.585],[-49.3274,-11.5346],[-49.0627,-8.8887],[-48.3749,-6.5075],[-48.6924,-5.8196],[-48.904,-5.555],[-49.0777,-5.4031],[-49.2878,-5.2193],[-49.3274,-5.1846],[-48.4807,-3.9146],[-48.4807,-1.9567],[-47.8024,-1.6958],[-46.4169,-1.1629],[-46.239,-1.204],[-45.6585,-1.3379],[-45.6448,-1.3479],[-45.6289,-1.3447],[-45.4429,-1.3877],[-45.353,-1.5674],[-45.3291,-1.7173],[-45.2821,-1.6966],[-45.2386,-1.6295],[-45.1821,-1.507],[-45.0859,-1.4701],[-45.068,-1.4742],[-45.0258,-1.5135],[-45.0113,-1.5238],[-44.9517,-1.6105],[-44.595,-2.1293],[-44.6173,-2.1521],[-44.6586,-2.2275],[-44.7075,-2.2411],[-44.7563,-2.2655],[-44.7006,-2.3204],[-44.6624,-2.3732],[-44.579,-2.2305],[-44.5426,-2.2055],[-44.459,-2.3271],[-44.3852,-2.3317],[-44.3818,-2.3655],[-44.5201,-2.4055],[-44.5207,-2.4813],[-44.562,-2.5242],[-44.589,-2.5734],[-44.6108,-2.6769],[-44.639,-2.7625],[-44.7214,-3.1423],[-44.723,-3.2048],[-44.6227,-3.1379],[-44.4375,-2.9444],[-44.3812,-2.7384],[-44.3082,-2.5352],[-44.2286,-2.4713],[-44.1794,-2.4712],[-44.1056,-2.4935],[-44.1014,-2.5601],[-44.1126,-2.5985],[-44.1916,-2.6996],[-44.2252,-2.755],[-44.1927,-2.8096],[-44.0132,-2.6422],[-43.9329,-2.5835],[-43.8645,-2.5954],[-43.7286,-2.5182],[-43.4551,-2.5021],[-43.4346,-2.4137],[-43.4173,-2.4017],[-43.2278,-2.4228],[-43.1075,-2.4361],[-42.9994,-2.4481],[-42.9367,-2.465],[-42.8323,-2.5296],[-42.6759,-2.5896],[-42.5936,-2.661],[-42.2496,-2.792],[-41.9999,-2.8061],[-41.8762,-2.7466],[-41.7219,-2.8089],[-41.6401,-2.8786],[-41.4799,-2.9165],[-41.3182,-2.9362],[-41.1945,-2.8861],[-40.8756,-2.8696],[-40.6655,-2.8309],[-40.3029,-2.8082]]],[[[-44.2536,-23.0886],[-44.2429,-23.0741],[-44.2306,-23.0789],[-44.2536,-23.0886]]],[[[-44.5653,-2.9239],[-44.5819,-2.8456],[-44.5691,-2.785],[-44.502,-2.7263],[-44.4814,-2.7176],[-44.4873,-2.7897],[-44.4826,-2.8119],[-44.4993,-2.9396],[-44.5978,-3.0376],[-44.5653,-2.9239]]],[[[-38.6146,-12.924],[-38.6003,-12.9725],[-38.6012,-12.9926],[-38.7438,-13.0971],[-38.783,-13.1187],[-38.787,-13.0551],[-38.6849,-12.9749],[-38.6681,-12.8802],[-38.6146,-12.924]]],[[[-38.9776,-13.5235],[-38.9932,-13.4841],[-39.0222,-13.4456],[-39.0066,-13.4155],[-38.9801,-13.3984],[-38.9071,-13.4011],[-38.9036,-13.4734],[-38.9379,-13.5323],[-38.9776,-13.5235]]],[[[-48.6658,-26.2896],[-48.5397,-26.1703],[-48.4976,-26.2188],[-48.5311,-26.3132],[-48.5681,-26.3797],[-48.5844,-26.4016],[-48.6031,-26.4138],[-48.6658,-26.2896]]]]}},{"type":"Feature","properties":{"slug":"amazon-basin","name":"Amazon Basin","family":"plateaus-basins","kind":"basin","source":"Natural Earth 10m geography_regions_polys"},"geometry":{"type":"MultiPolygon","coordinates":[[[[-59.8225,3.6173],[-59.9637,2.8763],[-59.8931,2.4883],[-59.701,1.8297],[-59.6461,1.6417],[-58.6407,1.3771],[-57.745,1.7088],[-57.2119,1.9063],[-56.1818,1.9063],[-55.9419,1.9063],[-56.0606,2.3808],[-56.0688,2.4135],[-56.1007,2.5413],[-55.8653,2.5518],[-55.7114,2.5587],[-54.9189,2.5942],[-54.4073,2.1179],[-52.9786,2.2767],[-52.6517,2.3361],[-52.5906,2.3472],[-52.3436,3.1939],[-51.7531,4.0469],[-51.6638,4.1759],[-51.6593,4.1823],[-51.6533,4.1388],[-51.6581,4.0985],[-51.6525,4.0613],[-51.5578,4.2338],[-51.5471,4.3109],[-51.4834,4.313],[-51.4227,4.2881],[-51.3271,4.2248],[-51.2199,4.0936],[-51.1838,3.9874],[-51.0718,3.5994],[-51.0524,3.2818],[-50.9941,3.0775],[-50.8272,2.6519],[-50.8165,2.573],[-50.7897,2.4778],[-50.737,2.3768],[-50.6788,2.2104],[-50.6766,2.1794],[-50.7144,2.134],[-50.6589,2.131],[-50.6087,2.1041],[-50.5759,1.9986],[-50.5344,1.9272],[-50.4589,1.8296],[-50.3043,1.7977],[-50.1876,1.786],[-50.0547,1.7307],[-49.9571,1.6599],[-49.9068,1.5],[-49.9019,1.3034],[-49.9017,1.2969],[-49.9062,1.269],[-49.8989,1.163],[-49.9379,1.1214],[-50.0472,1.052],[-50.071,1.0151],[-50.2944,0.8357],[-50.3433,0.751],[-50.463,0.6373],[-50.5815,0.4205],[-50.7551,0.2226],[-50.8164,0.1726],[-50.9102,0.161],[-50.9671,0.1303],[-51.102,-0.0312],[-51.2829,-0.0852],[-51.2996,-0.1788],[-51.4042,-0.3927],[-51.4963,-0.5095],[-51.555,-0.5491],[-51.7026,-0.7623],[-51.7215,-0.8555],[-51.7206,-1.0185],[-51.8191,-1.1178],[-51.9216,-1.1809],[-51.9345,-1.3203],[-51.9808,-1.368],[-52.0205,-1.399],[-52.2292,-1.3625],[-52.5534,-1.5141],[-52.6642,-1.5518],[-52.3103,-1.5596],[-52.1967,-1.6401],[-51.9476,-1.5867],[-51.6463,-1.3943],[-51.5312,-1.3541],[-51.2974,-1.2235],[-51.2023,-1.1365],[-51.029,-1.0321],[-50.992,-0.9863],[-50.8949,-0.9376],[-50.8423,-0.9996],[-50.8382,-1.0389],[-50.9179,-1.1152],[-50.8972,-1.1645],[-50.8446,-1.2263],[-50.8255,-1.3114],[-50.8187,-1.3763],[-50.7861,-1.4899],[-50.679,-1.6438],[-50.6753,-1.6947],[-50.69,-1.7617],[-50.6388,-1.8171],[-50.5856,-1.8499],[-50.4032,-2.0155],[-50.2604,-1.9229],[-50.1727,-1.8962],[-50.1166,-1.8575],[-49.9992,-1.8318],[-49.903,-1.8706],[-49.7195,-1.9264],[-49.5854,-1.8672],[-49.3137,-1.7317],[-49.3986,-1.9716],[-49.4602,-2.1915],[-49.507,-2.2803],[-49.5534,-2.5199],[-49.5993,-2.5839],[-49.6365,-2.6569],[-49.5759,-2.6314],[-49.5239,-2.5969],[-49.4575,-2.5046],[-49.4077,-2.3443],[-49.211,-1.9165],[-49.1548,-1.8785],[-48.9913,-1.8298],[-48.71,-1.4877],[-48.6,-1.4888],[-48.5296,-1.5675],[-48.4629,-1.614],[-48.4459,-1.5204],[-48.3498,-1.4821],[-48.4515,-1.4358],[-48.4681,-1.3938],[-48.4777,-1.3238],[-48.4086,-1.2292],[-48.4498,-1.1455],[-48.3065,-1.0398],[-48.3176,-0.9605],[-48.2665,-0.8951],[-48.2018,-0.8279],[-48.1285,-0.7952],[-48.1159,-0.741],[-48.0045,-0.7304],[-47.9609,-0.7696],[-47.9121,-0.7216],[-47.7573,-0.7068],[-47.7383,-0.705],[-47.7315,-0.7104],[-47.6871,-0.7248],[-47.6511,-0.7188],[-47.5993,-0.6918],[-47.5459,-0.6867],[-47.5705,-0.7835],[-47.5761,-0.8054],[-47.8024,-1.6958],[-48.075,-2.768],[-47.7928,-4.3555],[-46.7344,-5.1846],[-46.6825,-5.2966],[-46.17,-6.4017],[-46.9814,-9.1885],[-46.9814,-12.0461],[-47.1578,-15.0095],[-47.7084,-15.8202],[-48.4278,-16.8792],[-49.3968,-17.0477],[-51.6733,-17.4437],[-52.4847,-18.502],[-53.6136,-18.502],[-53.9899,-18.0002],[-53.9957,-17.9925],[-54.3544,-17.5142],[-54.4603,-15.8209],[-54.0224,-14.4736],[-54.0016,-14.4097],[-54.3015,-13.9158],[-54.9188,-13.7042],[-56.6827,-14.0217],[-57.4052,-14.3018],[-57.7998,-14.4548],[-58.4114,-14.6919],[-59.3639,-16.0325],[-59.368,-16.2539],[-59.3793,-16.8656],[-59.3815,-16.985],[-58.9758,-18.008],[-60.5457,-17.6729],[-61.177,-17.7707],[-61.2721,-17.7855],[-61.798,-17.867],[-62.6447,-19.2429],[-63.0294,-19.6954],[-63.0837,-19.7593],[-63.1276,-19.8109],[-63.1381,-19.8232],[-63.2444,-19.9483],[-64.0205,-20.1247],[-65.1494,-19.6308],[-65.4247,-19.3366],[-65.4264,-19.3347],[-66.1725,-18.5372],[-66.6311,-17.3025],[-67.3366,-16.6575],[-67.4524,-16.5517],[-67.8658,-16.1736],[-69.6447,-14.4917],[-69.6538,-14.4832],[-69.8061,-14.3392],[-70.3169,-14.162],[-70.5458,-14.0825],[-71.5347,-13.7394],[-73.7219,-12.6811],[-73.7799,-12.6175],[-73.9265,-12.4567],[-76.262,-9.8942],[-77.9553,-6.7192],[-78.4286,-4.9698],[-78.5021,-4.698],[-78.5592,-4.4873],[-78.5903,-4.3724],[-78.7667,-3.7205],[-78.7081,-3.3946],[-78.7067,-3.3867],[-78.2728,-0.9689],[-77.3202,0.7244],[-77.0808,0.8723],[-76.9679,0.942],[-76.1208,1.4653],[-74.9567,2.5236],[-74.4639,2.4871],[-74.0041,2.4531],[-73.9988,2.452],[-73.7808,2.4084],[-73.7103,2.3943],[-71.8874,2.0297],[-70.688,1.9945],[-69.9545,2.0834],[-68.3597,2.2767],[-67.6542,2.8411],[-67.3367,2.4883],[-66.878,1.3242],[-66.4868,0.9085],[-66.3393,0.7517],[-66.3136,0.7244],[-65.8902,0.8303],[-65.2905,0.9361],[-64.1263,1.6769],[-63.4208,2.1003],[-63.4208,2.3825],[-63.4934,2.4052],[-63.9853,2.5589],[-64.1269,3.0545],[-64.212,3.3525],[-64.2675,3.5466],[-64.4831,3.8547],[-64.7613,4.2522],[-64.1591,4.1518],[-64.1265,4.1464],[-63.9853,3.8994],[-63.1386,3.7936],[-62.3978,4.1816],[-61.6922,4.217],[-60.7007,4.7277],[-60.528,4.8167],[-59.6814,4.4286],[-59.505,3.8994],[-59.6082,3.8077],[-59.8225,3.6173]]],[[[-50.4561,1.9105],[-50.509,2.0295],[-50.491,2.1286],[-50.4188,2.1615],[-50.3626,2.1544],[-50.342,2.1417],[-50.2921,1.9796],[-50.299,1.9385],[-50.3988,1.8929],[-50.4561,1.9105]]],[[[-50.1128,0.6047],[-50.0986,0.625],[-50.0588,0.638],[-50.0368,0.5948],[-50.04,0.5228],[-50.1529,0.393],[-50.2613,0.3592],[-50.2815,0.3908],[-50.2817,0.5165],[-50.2512,0.5854],[-50.1128,0.6047]]],[[[-49.4005,0.0572],[-49.3723,0.0011],[-49.3809,-0.0555],[-49.4439,-0.1124],[-49.7088,-0.1437],[-49.8301,-0.0939],[-49.8027,-0.0519],[-49.7123,0.0151],[-49.6022,0.0627],[-49.5035,0.0837],[-49.4005,0.0572]]],[[[-49.6287,-0.2292],[-49.5352,-0.2336],[-49.4029,-0.2146],[-49.3143,-0.1679],[-49.2151,-0.1587],[-49.117,-0.1636],[-48.7866,-0.2155],[-48.588,-0.2316],[-48.5154,-0.2482],[-48.4445,-0.2719],[-48.3927,-0.2974],[-48.3797,-0.3528],[-48.428,-0.4415],[-48.464,-0.5348],[-48.4975,-0.6649],[-48.5233,-0.6914],[-48.5667,-0.6845],[-48.5397,-0.801],[-48.5495,-0.8476],[-48.5709,-0.8929],[-48.6241,-0.9869],[-48.7046,-1.1066],[-48.7285,-1.1317],[-48.7898,-1.1733],[-48.8397,-1.2266],[-48.829,-1.2766],[-48.8041,-1.327],[-48.8336,-1.39],[-48.9289,-1.4823],[-48.9859,-1.5047],[-49.0385,-1.5141],[-49.0869,-1.5051],[-49.1727,-1.4126],[-49.1817,-1.485],[-49.2048,-1.559],[-49.234,-1.5995],[-49.3448,-1.5952],[-49.4066,-1.5556],[-49.5066,-1.5116],[-49.5257,-1.6305],[-49.5879,-1.7124],[-49.6506,-1.7381],[-49.7488,-1.7554],[-49.8051,-1.7902],[-49.9113,-1.763],[-50.01,-1.7085],[-50.0657,-1.7038],[-50.1093,-1.7479],[-50.3384,-1.756],[-50.4435,-1.8007],[-50.5076,-1.788],[-50.6021,-1.6978],[-50.6172,-1.6377],[-50.6734,-1.516],[-50.7238,-1.3715],[-50.7598,-1.2402],[-50.7295,-1.1268],[-50.6683,-1.1306],[-50.5959,-1.1475],[-50.5805,-1.1395],[-50.577,-1.1031],[-50.5929,-1.0729],[-50.7096,-1.0777],[-50.7833,-1.0104],[-50.7961,-0.9062],[-50.781,-0.6898],[-50.7714,-0.6454],[-50.7199,-0.5834],[-50.7031,-0.5285],[-50.7158,-0.4702],[-50.6937,-0.3645],[-50.6455,-0.2729],[-50.4616,-0.1574],[-50.2482,-0.1164],[-49.6287,-0.2292]]],[[[-51.1607,-0.6667],[-51.2763,-1.0218],[-51.3101,-1.0238],[-51.4651,-1.2111],[-51.6377,-1.3419],[-51.8325,-1.4338],[-51.9384,-1.4526],[-51.8021,-1.2025],[-51.68,-1.0861],[-51.6783,-0.8551],[-51.546,-0.6496],[-51.4245,-0.5659],[-51.254,-0.5414],[-51.1607,-0.6667]]],[[[-50.6529,-0.1316],[-50.9264,-0.3273],[-51.019,-0.2631],[-51.0381,-0.2259],[-51.0224,-0.1884],[-51.0257,-0.1724],[-50.9951,-0.1053],[-50.8422,-0.0502],[-50.7653,-0.0409],[-50.667,-0.058],[-50.6506,-0.1059],[-50.6529,-0.1316]]],[[[-49.839,0.0069],[-49.9171,-0.0232],[-50.0025,-0.0293],[-50.1131,0.033],[-50.2856,0.0286],[-50.3395,0.0434],[-50.3451,0.1345],[-50.2727,0.2317],[-50.128,0.2265],[-49.879,0.3045],[-49.7382,0.2682],[-49.6973,0.216],[-49.839,0.0069]]],[[[-50.4439,-0.0077],[-50.6239,0.0544],[-50.6104,0.2048],[-50.5262,0.2469],[-50.4516,0.3269],[-50.4261,0.425],[-50.4246,0.5583],[-50.3969,0.5814],[-50.3728,0.5909],[-50.351,0.5817],[-50.3425,0.3816],[-50.3323,0.259],[-50.4261,0.1393],[-50.4439,-0.0077]]]]}},{"type":"Feature","properties":{"slug":"congo-basin","name":"Congo Basin","family":"plateaus-basins","kind":"basin","source":"Natural Earth 10m geography_regions_polys"},"geometry":{"type":"Polygon","coordinates":[[[28.7001,5.2868],[30.3401,4.4524],[30.8579,3.618],[31.0001,2.647],[30.494,1.8879],[29.6243,0.5833],[28.4976,-1.1312],[28.4072,-1.2687],[28.4072,-1.5312],[28.4072,-3.0151],[28.7776,-4.4438],[28.6516,-4.5504],[26.7139,-6.19],[26.6849,-6.2514],[25.7078,-8.3222],[24.2692,-10.3937],[22.5605,-11.5898],[22.2553,-11.8035],[20.6517,-11.8035],[19.637,-11.8035],[18.803,-11.7629],[18.1554,-11.204],[17.8249,-10.6108],[17.3352,-9.732],[16.3654,-7.9727],[15.7262,-7.5541],[14.993,-7.6851],[14.4868,-7.7754],[13.5374,-6.711],[13.3058,-6.7573],[13.1058,-6.7973],[12.5078,-6.3984],[12.3928,-6.0815],[12.5535,-6.0459],[12.7906,-6.0039],[13.0098,-5.9076],[13.0682,-5.8648],[13.0033,-5.8361],[12.8608,-5.8541],[12.7916,-5.8777],[12.6807,-5.9608],[12.5146,-6.0042],[12.4529,-6.0005],[12.4117,-5.9863],[12.3304,-5.9097],[12.2953,-5.8131],[12.1922,-5.5292],[12.188,-5.5177],[12.2065,-5.4683],[12.1771,-5.3248],[12.1419,-5.2573],[12.7946,-5.0276],[13.5142,-4.7744],[13.6525,-4.7258],[14.8608,-4.0064],[14.9185,-3.1721],[14.343,-3.0569],[13.969,-2.165],[14.2567,-1.1293],[14.2854,0.7409],[13.9114,2.2946],[12.4729,2.5247],[11.9838,3.3591],[13.5662,4.7401],[14.7451,6.0997],[15.6941,6.153],[17.4534,5.7265],[18.9993,6.2383],[20.903,6.3513],[21.3939,7.595],[21.7661,8.538],[22.9745,9.545],[25.3321,8.6222],[26.1318,8.3091],[27.0889,6.9555],[28.7001,5.2868]]]}},{"type":"Feature","properties":{"slug":"great-plains","name":"Great Plains","family":"plains-grasslands","kind":"plain","source":"Natural Earth 10m geography_regions_polys"},"geometry":{"type":"Polygon","coordinates":[[[-111.7535,53.8185],[-111.3109,53.7393],[-110.9224,53.8439],[-110.6048,53.8439],[-110.0011,53.5985],[-109.5306,53.4646],[-108.864,53.0399],[-108.3297,52.8196],[-108.0263,52.5716],[-107.2972,52.3626],[-106.861,52.6259],[-106.4361,52.9346],[-105.8198,53.2022],[-105.0751,52.9973],[-104.1755,52.865],[-103.6199,52.5475],[-103.4082,52.2036],[-102.2624,51.7576],[-101.7179,51.3606],[-101.4649,50.9472],[-101.1278,50.3746],[-99.8099,49.9281],[-99.0161,49.0285],[-97.8784,48.1554],[-97.5239,46.2134],[-97.4286,45.3508],[-97.4022,43.8691],[-97.4022,42.4139],[-96.7671,40.8265],[-96.3967,38.8421],[-96.873,37.5721],[-97.3048,36.4429],[-97.2541,34.9595],[-96.6765,34.3819],[-95.8675,34.1854],[-95.6294,34.106],[-95.5612,33.2593],[-95.7157,32.0228],[-96.7742,31.1646],[-96.8183,31.1289],[-97.3052,30.2849],[-97.9579,29.4736],[-99.0928,28.9163],[-100.326,28.1558],[-100.9211,28.4969],[-101.2145,28.9789],[-101.2915,29.1054],[-101.7665,29.6949],[-101.851,29.7998],[-102.0707,30.0725],[-102.3763,31.0369],[-103.0951,31.3732],[-103.1168,31.3993],[-103.3192,31.6425],[-103.3401,31.6675],[-104.0786,32.5547],[-104.2549,33.3652],[-104.1196,33.6229],[-103.6992,34.4235],[-103.609,35.3482],[-103.5934,35.5083],[-104.1225,36.4344],[-104.1225,37.3604],[-104.356,38.3874],[-104.3871,38.5246],[-104.4665,39.5035],[-104.4665,40.5883],[-104.8898,41.5938],[-105.1015,42.705],[-106.1069,43.8427],[-106.6626,44.7687],[-107.7738,45.7742],[-108.4928,45.917],[-109.6216,46.1224],[-110.1022,47.1235],[-111.0281,47.6343],[-111.9013,47.8379],[-112.5892,48.8433],[-113.2242,49.6635],[-113.7005,50.4573],[-113.8592,51.8861],[-114.0973,52.7856],[-114.1698,53.5685],[-113.6122,54.1262],[-112.7825,54.0587],[-112.2218,54.0509],[-111.7535,53.8185]]]}},{"type":"Feature","properties":{"slug":"pampas","name":"Pampas","family":"plains-grasslands","kind":"grassland","source":"Natural Earth 10m geography_regions_polys"},"geometry":{"type":"MultiPolygon","coordinates":[[[[-61.894,-39.2309],[-61.918,-39.2274],[-62.0416,-39.1669],[-62.0833,-39.1102],[-62.093,-39.0862],[-61.9667,-39.1122],[-61.9071,-39.1356],[-61.8758,-39.1719],[-61.8746,-39.1792],[-61.894,-39.2309]]],[[[-62.3079,-39.8405],[-62.9622,-39.5275],[-63.6296,-39.1805],[-63.8442,-39.0689],[-64.0551,-39.0086],[-64.5043,-38.8803],[-64.8319,-38.7867],[-65.3147,-38.6825],[-65.9609,-38.2575],[-65.855,-37.9047],[-66.4739,-37.484],[-66.7369,-37.3051],[-66.7539,-37.1918],[-66.8239,-36.7253],[-66.8685,-36.428],[-66.7942,-36.2996],[-66.6091,-35.9799],[-66.5821,-35.6792],[-66.526,-35.0558],[-66.5253,-35.0473],[-66.5282,-35.0383],[-66.8075,-34.1653],[-67.1257,-33.5562],[-67.1603,-32.7542],[-67.2644,-32.5855],[-67.411,-32.3481],[-67.4274,-32.3421],[-67.6542,-32.2603],[-67.9011,-32.1545],[-67.9642,-32.0493],[-68.0334,-31.934],[-67.4914,-31.5234],[-67.1603,-31.2725],[-67.2413,-30.9121],[-67.3984,-30.2142],[-66.7898,-29.4998],[-66.1284,-28.8913],[-65.414,-28.2033],[-65.6582,-27.4869],[-65.5652,-27.3206],[-65.5082,-27.2188],[-65.4669,-27.1451],[-65.4369,-27.125],[-64.7836,-26.6885],[-64.087,-25.4887],[-64.0708,-25.4609],[-64.0451,-25.5306],[-63.7936,-26.2133],[-63.7341,-27.1044],[-63.6416,-27.3399],[-63.4898,-27.7264],[-63.3855,-27.9918],[-62.2566,-29.3676],[-60.8904,-29.6829],[-60.8808,-29.6851],[-60.8799,-29.6878],[-60.7045,-30.2494],[-60.7247,-30.7044],[-60.7664,-31.6444],[-60.775,-31.837],[-60.7499,-32.1761],[-60.7339,-32.3918],[-60.7045,-32.7895],[-60.6829,-32.8127],[-60.2458,-33.2834],[-58.4819,-34.1301],[-58.4761,-34.1682],[-58.462,-34.2595],[-58.4752,-34.263],[-58.5255,-34.2962],[-58.4662,-34.4574],[-58.4205,-34.5292],[-58.4114,-34.5887],[-58.3405,-34.6195],[-58.2833,-34.6835],[-57.7636,-34.8945],[-57.5479,-35.0189],[-57.3037,-35.1885],[-57.1707,-35.3625],[-57.1589,-35.506],[-57.3539,-35.7203],[-57.3755,-35.9003],[-57.3354,-36.0268],[-57.265,-36.1441],[-57.0762,-36.2968],[-56.9372,-36.3525],[-56.7556,-36.3467],[-56.7451,-36.3522],[-56.7174,-36.3891],[-56.6981,-36.4265],[-56.6683,-36.7353],[-56.672,-36.8513],[-56.7271,-36.9577],[-57.0877,-37.4464],[-57.3958,-37.7446],[-57.5073,-37.9093],[-57.547,-38.0856],[-57.6456,-38.1696],[-58.1012,-38.3969],[-59.3375,-38.6959],[-59.5818,-38.7549],[-60.0329,-38.864],[-60.904,-38.9739],[-61.1122,-38.993],[-61.3829,-38.9809],[-61.6025,-38.9988],[-61.8479,-38.9618],[-62.0669,-38.9191],[-62.1893,-38.8133],[-62.3348,-38.8001],[-62.3745,-38.8529],[-62.3036,-38.9881],[-62.3381,-39.1506],[-62.2951,-39.2433],[-62.2091,-39.2618],[-62.1265,-39.3098],[-62.0537,-39.3738],[-62.1793,-39.3805],[-62.1306,-39.4315],[-62.0768,-39.4615],[-62.0828,-39.5684],[-62.1315,-39.8254],[-62.2387,-39.8736],[-62.3079,-39.8405]]]]}},{"type":"Feature","properties":{"slug":"pontic-caspian-steppe","name":"Pontic-Caspian Steppe","family":"plains-grasslands","kind":"steppe","source":"Natural Earth 10m geography_regions_polys: PONTIC STEPPE, CASPIAN DEPRESSION"},"geometry":{"type":"MultiPolygon","coordinates":[[[[48.9635,49.1712],[50.1187,49.1841],[50.3612,49.1633],[50.6019,49.1238],[50.8496,49.062],[51.1852,48.9549],[51.3565,48.9235],[51.4194,48.9263],[51.4617,48.9283],[51.5353,48.9316],[51.647,48.9807],[51.8462,49.1383],[51.9478,49.1793],[51.9575,49.1773],[52.0554,49.1569],[52.1427,49.086],[52.2238,49.0013],[52.3124,48.9378],[52.3897,48.9167],[52.4746,48.9099],[52.6516,48.9113],[52.7636,48.9023],[53.0787,48.8388],[53.1194,48.6807],[53.1941,48.5328],[53.2959,48.4017],[53.4185,48.2936],[53.5402,48.2091],[53.5962,48.1616],[53.6502,48.1005],[53.7019,48.009],[53.8062,47.6984],[53.8551,47.6002],[54.0445,47.2788],[54.0994,47.1856],[54.1168,47.1561],[54.1698,47.079],[54.2302,47.0089],[54.2493,46.9898],[54.4569,46.8046],[54.5327,46.7482],[54.6897,46.645],[54.8858,46.478],[55.1405,46.2855],[55.2603,46.1841],[55.3246,46.1108],[55.3836,46.023],[55.4873,45.8447],[55.5429,45.6885],[55.5283,45.5421],[55.4504,45.4201],[55.3164,45.337],[55.2174,45.3094],[55.0142,45.2714],[54.9155,45.2414],[54.8171,45.1836],[54.7643,45.138],[54.6499,45.0393],[54.5421,44.9831],[54.4734,44.9678],[53.9271,44.846],[53.6463,44.7401],[53.4253,44.5328],[53.3272,44.3896],[53.2031,44.2451],[53.0552,44.1365],[52.8854,44.101],[52.7603,44.1376],[52.6344,44.2123],[52.3995,44.3748],[52.3043,44.4241],[52.2141,44.4588],[52.1196,44.4802],[52.0123,44.4894],[51.6658,44.4768],[51.5657,44.4959],[51.5034,44.5335],[51.5436,44.531],[51.4937,44.5775],[51.4311,44.602],[51.4216,44.6016],[51.3405,44.6737],[51.2548,44.7238],[51.147,44.7545],[51.0579,44.8116],[51.0207,44.854],[51.0094,44.9218],[51.0403,44.9803],[51.1537,45.0402],[51.2499,45.1217],[51.2835,45.204],[51.3253,45.2282],[51.4766,45.3454],[51.4838,45.3496],[51.5396,45.3429],[51.7326,45.3995],[52.0487,45.3884],[52.4268,45.4046],[52.5311,45.3986],[52.772,45.3435],[52.9107,45.3197],[53.0789,45.3075],[53.2004,45.332],[53.0857,45.4074],[52.8375,45.4967],[52.7738,45.5728],[52.8875,45.7795],[52.9479,45.8533],[52.9865,45.8846],[53.0252,45.9293],[53.0497,45.9858],[53.0499,45.9878],[53.1353,46.1917],[53.109,46.4141],[53.0975,46.4296],[53.1546,46.6376],[53.1553,46.6451],[53.1702,46.669],[53.1602,46.6915],[53.1683,46.7697],[53.0414,46.9148],[52.9816,46.9204],[52.916,46.9544],[52.6776,46.9571],[52.4832,46.9907],[52.4203,46.9637],[52.3849,46.9221],[52.3403,46.8948],[52.3052,46.882],[52.219,46.867],[52.0696,46.8639],[52.0507,46.8688],[52.0111,46.9019],[51.9481,46.8952],[51.944,46.8962],[51.7755,46.9621],[51.7715,46.9637],[51.758,46.9689],[51.7452,46.9739],[51.6902,46.9954],[51.6706,46.9997],[51.6501,47.0181],[51.6152,47.0299],[51.2908,47.0973],[51.178,47.1102],[50.92,47.0407],[50.7327,46.9517],[50.6799,46.9387],[50.5829,46.8823],[50.5284,46.8733],[50.4723,46.8829],[50.4193,46.8795],[50.3062,46.7949],[50.2978,46.7908],[50.1555,46.7466],[49.9658,46.6659],[49.8231,46.5835],[49.7605,46.5715],[49.6315,46.5676],[49.5844,46.5452],[49.4372,46.5373],[49.3475,46.5191],[49.3442,46.4855],[49.3458,46.4788],[49.3308,46.4745],[49.2745,46.4362],[49.2516,46.415],[49.2057,46.3857],[49.2105,46.3769],[49.1654,46.3353],[49.037,46.2376],[48.9861,46.1918],[48.9503,46.1467],[48.81,46.1005],[48.7426,46.1007],[48.6837,46.0862],[48.6873,46.0288],[48.7034,45.9762],[48.7289,45.9455],[48.7234,45.9416],[48.627,45.912],[48.5891,45.9349],[48.5373,45.9421],[48.487,45.9349],[48.3604,45.8482],[48.1729,45.8094],[47.8722,45.7238],[47.7439,45.6724],[47.7011,45.6862],[47.6498,45.6567],[47.6381,45.6052],[47.6215,45.5941],[47.574,45.6343],[47.5084,45.6742],[47.4794,45.6876],[47.4633,45.6797],[47.5242,45.6017],[47.5295,45.5302],[47.5146,45.4909],[47.4887,45.4551],[47.4545,45.4331],[47.4131,45.421],[47.3955,45.3203],[47.3423,45.2582],[47.1581,45.0089],[47.1084,44.9584],[46.9243,44.8482],[46.7421,44.8178],[46.3391,44.8542],[46.0485,44.9112],[45.8106,45.0275],[45.5947,45.1859],[45.5868,45.1926],[45.1478,45.5655],[44.9519,45.7765],[44.8677,45.8852],[44.7749,46.005],[44.6084,46.2539],[44.4828,46.4977],[44.4365,46.5875],[44.3588,46.9273],[44.4314,47.2338],[44.5778,47.3566],[44.7103,47.4678],[44.7765,47.5045],[44.9067,47.5889],[44.971,47.6196],[45.0591,47.6401],[45.2461,47.6541],[45.3377,47.6658],[45.5626,47.7241],[45.7844,47.799],[45.9163,47.8596],[46.2826,48.0932],[46.5112,48.1896],[46.616,48.2509],[46.69,48.346],[46.7149,48.4238],[46.7382,48.5468],[46.7456,48.5859],[46.7727,48.6632],[46.8634,48.7855],[46.9905,48.8807],[47.1364,48.9506],[47.9684,49.1822],[48.3176,49.2342],[48.6669,49.2098],[48.7033,49.2051],[48.9635,49.1712]]],[[[52.6126,45.5273],[52.6596,45.5181],[52.693,45.4607],[52.6824,45.4118],[52.6648,45.4013],[52.5983,45.4282],[52.5545,45.4737],[52.6126,45.5273]]],[[[55.6218,51.6511],[54.8541,51.6223],[54.1156,51.6455],[53.2218,51.6735],[52.8176,51.6108],[52.4832,51.4804],[52.3691,51.3944],[52.2107,51.2752],[52.026,50.9957],[51.9551,50.6424],[51.9684,50.204],[51.9529,49.6417],[51.8574,49.306],[51.813,49.1498],[51.4617,48.9283],[51.453,48.9228],[51.4194,48.9263],[51.2644,48.9428],[50.8977,49.0776],[50.7064,49.1298],[50.1018,49.1927],[48.7033,49.2051],[48.3689,49.2081],[47.82,49.1351],[47.2793,48.9689],[47.0845,48.8758],[46.8983,48.7705],[46.8234,48.7092],[46.7798,48.6436],[46.7382,48.5468],[46.7172,48.4979],[46.673,48.4151],[46.636,48.3569],[46.5913,48.3048],[46.5239,48.2406],[46.3805,48.1412],[46.057,48.0019],[45.892,47.9116],[45.4869,47.7537],[45.0435,47.663],[44.6616,47.4998],[44.5778,47.3566],[44.4417,47.1242],[44.424,46.6932],[44.4828,46.4977],[44.5388,46.3115],[44.7642,45.9786],[44.8677,45.8852],[45.3018,45.4937],[45.5868,45.1926],[45.7116,45.0608],[45.9485,44.8864],[46.1804,44.7969],[46.4144,44.7639],[46.6537,44.7492],[46.8487,44.7224],[46.8412,44.7183],[46.7553,44.6565],[46.7161,44.5607],[46.7072,44.5033],[46.7209,44.4517],[46.753,44.4207],[46.9157,44.3872],[47.0236,44.3433],[47.1227,44.2617],[47.2299,44.1924],[47.307,44.1031],[47.3615,43.9934],[47.4292,43.7799],[47.4628,43.555],[47.4841,43.6147],[47.4871,43.5897],[47.5106,43.5144],[47.509,43.5097],[47.4898,43.3817],[47.5116,43.2708],[47.5129,43.2188],[47.4632,43.0351],[47.4889,42.9998],[47.529,42.9671],[47.6349,42.9035],[47.7091,42.8109],[47.7277,42.6807],[47.7697,42.6448],[47.8224,42.6135],[47.9797,42.455],[47.8799,42.4128],[47.7404,42.4261],[47.6006,42.4791],[47.468,42.5534],[47.3501,42.6303],[47.2521,42.7201],[47.2229,42.8032],[47.2214,42.8072],[47.2187,42.8732],[47.2173,42.9081],[47.199,43.0394],[47.1116,43.1724],[47.0682,43.1894],[46.9678,43.2287],[46.8034,43.2501],[46.6961,43.2704],[46.6542,43.2783],[46.3145,43.3978],[46.1422,43.4277],[46.0999,43.425],[45.9524,43.4154],[45.4395,43.2556],[45.2014,43.2438],[44.9673,43.3735],[44.9489,43.3902],[44.7886,43.5355],[44.6307,43.6487],[44.4614,43.7311],[44.3971,43.7506],[43.8978,43.9016],[43.7815,43.9368],[43.6228,43.9742],[43.4424,43.9916],[43.4219,43.9907],[43.082,43.9765],[42.9046,43.9893],[42.7619,44.0236],[42.6055,44.0839],[42.0032,44.3164],[41.0513,44.8073],[40.6556,44.949],[40.5999,44.969],[40.1731,45.0284],[40.1085,45.0374],[39.7518,45.0463],[39.3261,45.0569],[38.7277,45.0718],[38.5309,45.0571],[38.3417,45.0217],[38.1198,44.9952],[37.9041,45.0219],[37.6921,45.0832],[36.7889,45.4072],[36.7938,45.4097],[36.8659,45.4271],[36.9778,45.3836],[37.1035,45.3029],[37.2136,45.2723],[37.2643,45.3109],[37.6472,45.3772],[37.6729,45.4297],[37.6719,45.4884],[37.6344,45.4863],[37.61,45.4995],[37.6124,45.5647],[37.6692,45.6541],[37.8409,45.7996],[37.9331,46.0017],[38.0143,46.0478],[38.0738,46.0171],[38.0697,45.9699],[38.0796,45.9348],[38.1328,46.0028],[38.1836,46.0948],[38.3118,46.0954],[38.4004,46.08],[38.4923,46.0905],[38.3152,46.2419],[38.0777,46.3943],[37.9775,46.3829],[37.9139,46.4065],[37.8096,46.5321],[37.7665,46.6361],[37.8674,46.6338],[37.968,46.618],[38.1595,46.6907],[38.23,46.7013],[38.3435,46.6783],[38.501,46.6637],[38.488,46.7322],[38.4387,46.8131],[38.6308,46.873],[38.8011,46.9062],[39.1268,47.0234],[39.2707,47.0441],[39.2891,47.0709],[39.2935,47.1058],[39.2445,47.1995],[39.1957,47.2688],[39.0237,47.2722],[38.9283,47.1757],[38.6682,47.1439],[38.5524,47.1503],[38.6443,47.2122],[38.736,47.2358],[38.7619,47.2616],[38.5772,47.2391],[38.4848,47.1755],[38.2144,47.0915],[38.1783,47.0802],[37.8287,47.0958],[37.5434,47.0746],[37.3398,46.9169],[37.2186,46.9173],[37.0476,46.8762],[36.932,46.8251],[36.7948,46.7144],[36.6887,46.7641],[36.5588,46.7627],[36.432,46.7326],[36.2795,46.6586],[36.1946,46.6455],[36.0249,46.6668],[35.8271,46.6243],[35.4002,46.3814],[35.2566,46.2039],[35.2044,46.1692],[35.1323,46.1259],[35.0553,46.104],[35.0146,46.106],[35.2178,46.2322],[35.2802,46.2795],[35.2909,46.3144],[35.292,46.3707],[35.2304,46.4406],[35.0641,46.2672],[34.9695,46.2421],[34.8496,46.1899],[34.8442,46.0816],[34.6265,46.1278],[33.7318,46.1897],[33.6329,46.1965],[32.3997,46.2819],[32.2042,46.3243],[32.0838,46.3597],[31.9989,46.372],[32.0131,46.3872],[32.0085,46.43],[31.8558,46.4625],[31.7137,46.4718],[31.6236,46.5103],[31.5549,46.5543],[31.716,46.555],[31.8779,46.5217],[32.1314,46.5094],[32.3613,46.475],[32.4189,46.5178],[32.5525,46.592],[32.578,46.6156],[32.3541,46.5648],[32.1272,46.5972],[32.0443,46.6425],[31.9743,46.7088],[31.9449,46.7844],[31.9641,46.8548],[31.9396,46.982],[31.8647,47.0951],[31.8382,47.1572],[31.7592,47.2128],[31.8369,47.087],[31.8659,47.0033],[31.9127,46.9261],[31.9017,46.7216],[31.8729,46.6498],[31.7796,46.6316],[31.657,46.6424],[31.5321,46.6647],[31.5634,46.7773],[31.4969,46.7384],[31.4029,46.6288],[31.3353,46.6155],[31.3174,46.6289],[31.1913,46.6569],[31.0261,46.6009],[30.7963,46.552],[30.7729,46.473],[30.7217,46.3662],[30.7197,46.3637],[30.5631,46.2273],[30.2809,46.0121],[30.1838,45.9486],[30.1001,45.9211],[29.9109,45.8942],[29.8401,45.8577],[29.7953,45.7773],[29.7872,45.7377],[29.6851,45.7547],[29.6284,45.7225],[29.6017,45.6825],[29.6012,45.6],[29.6703,45.5407],[29.727,45.3433],[29.7059,45.2599],[29.6891,45.1932],[29.6786,45.1517],[29.6724,45.127],[29.666,45.122],[29.6326,45.0958],[29.5134,45.0271],[29.4601,44.9914],[29.4026,44.9457],[29.3717,44.9245],[29.3427,44.9095],[29.2748,44.8959],[29.1353,44.8934],[29.0723,44.875],[29.0689,44.8718],[29.0478,44.9257],[29.0953,44.975],[28.9807,44.9929],[28.9306,44.9658],[28.8915,44.9187],[28.9262,44.81],[28.8704,44.75],[28.849,44.7163],[28.8465,44.6369],[28.8136,44.6025],[28.807,44.565],[28.8882,44.5748],[28.8518,44.5061],[28.6992,44.3742],[28.6454,44.2957],[28.658,43.9973],[28.6174,43.9384],[28.5188,43.8453],[28.3984,43.7838],[28.2529,43.7622],[27.9313,43.777],[27.5812,43.834],[27.2604,43.9592],[27.027,44.1784],[27.0267,44.1786],[26.859,44.6318],[26.9699,44.9444],[27.2561,45.1965],[27.615,45.4681],[27.7921,45.6421],[27.9017,45.7999],[28.4956,46.9611],[28.7449,47.3425],[29.0205,47.653],[29.402,47.8695],[29.8479,47.9779],[30.3091,48.0624],[30.7363,48.2071],[30.8748,48.3259],[31.0693,48.4928],[31.5227,49.2411],[31.5459,49.2633],[31.8264,49.5325],[32.1954,49.6655],[32.594,49.6907],[33.3911,49.6257],[33.8925,49.6415],[34.3568,49.7266],[35.4132,50.0423],[35.8561,50.1746],[37.6439,50.5485],[39.2151,50.9984],[39.5993,51.1655],[46.2338,54.0506],[46.2771,54.0695],[47.6202,54.5372],[48.0484,54.619],[48.9696,54.7949],[50.1333,54.9401],[50.7352,55.0575],[51.2536,55.0903],[53.011,54.8647],[53.289,54.812],[53.5454,54.7382],[54.038,54.5604],[54.2991,54.4945],[54.5331,54.4622],[55.3565,54.4179],[55.854,54.3472],[56.015,54.3131],[56.1664,54.2565],[56.2915,54.1636],[56.3674,53.9799],[56.3242,53.7825],[56.2343,53.5832],[56.1699,53.3933],[56.1282,53.1583],[56.1181,53.0422],[56.1286,52.9232],[56.147,52.7946],[56.1532,52.405],[56.1384,52.2431],[56.0974,52.074],[56.0299,51.9147],[55.936,51.7819],[55.7958,51.6914],[55.7376,51.6779],[55.6218,51.6511]]]]}},{"type":"Feature","properties":{"slug":"kazakh-steppe","name":"Kazakh Steppe","family":"plains-grasslands","kind":"steppe","source":"Natural Earth 10m geography_regions_polys"},"geometry":{"type":"Polygon","coordinates":[[[62.7301,54.8766],[65.0861,55.1386],[66.683,55.0877],[66.6795,55.087],[66.676,55.0851],[66.6835,55.0828],[69.2944,55.1412],[69.2467,55.2242],[69.2356,55.2655],[69.2429,55.2993],[69.2786,55.3168],[69.3521,55.3094],[69.6292,55.2184],[72.4613,55.0877],[73.0161,55.3126],[76.2366,55.2778],[76.8102,54.8901],[79.0459,55.2698],[79.8201,55.4013],[80.0718,55.3319],[81.3015,55.3319],[81.375,55.2995],[81.4487,55.2811],[81.9852,55.2916],[82.0838,55.2734],[82.4118,55.3017],[82.4526,55.297],[82.4717,55.2808],[82.4801,55.2613],[82.4933,55.2474],[82.5117,55.2374],[82.7427,55.1689],[82.8088,55.1302],[82.9341,55.0245],[82.9708,55.0096],[83.0084,55.0067],[83.1033,55.0189],[83.1212,55.0129],[83.1282,54.9935],[83.0963,54.8652],[83.0864,54.8253],[83.0883,54.8226],[83.0908,54.8146],[83.0897,54.8013],[83.0808,54.7831],[83.0597,54.76],[82.9639,54.6997],[82.7947,54.632],[82.5745,54.5917],[81.6185,54.1781],[81.4935,54.0982],[81.3655,54.0645],[81.3175,54.0593],[81.2703,54.0147],[81.2402,53.9742],[81.2319,53.9539],[81.2315,53.9352],[81.2379,53.9202],[81.2481,53.9097],[81.2603,53.9028],[81.2733,53.8987],[81.2965,53.8966],[81.3067,53.8972],[81.3048,53.8798],[81.3065,53.862],[81.3136,53.8414],[81.3286,53.8207],[81.3544,53.8025],[81.3934,53.7893],[81.7902,53.7912],[81.9102,53.7385],[81.954,53.7349],[82.1328,53.6887],[82.1629,53.6884],[82.2202,53.7016],[82.2388,53.6962],[82.2622,53.6785],[82.4016,53.5358],[82.4996,53.4651],[82.6023,53.5429],[82.7214,53.4762],[82.8071,53.4475],[82.9812,53.4445],[82.9891,53.4681],[83.0007,53.4909],[83.0188,53.5146],[83.0444,53.5346],[83.0786,53.5465],[83.1223,53.5454],[83.3497,53.4393],[83.374,53.4333],[83.728,53.4426],[83.8223,53.3312],[83.8565,53.1122],[83.8698,53.0742],[83.8834,53.0602],[83.896,53.0612],[83.9119,53.0713],[83.9121,53.0623],[83.8667,52.9022],[83.837,52.8516],[83.7131,52.7351],[83.6941,52.7031],[83.6851,52.6603],[83.677,52.5276],[83.7449,52.3781],[83.8098,52.374],[83.9911,52.3958],[84.0215,52.3875],[84.0477,52.3642],[84.1041,52.2565],[84.1143,52.2472],[84.1255,52.2428],[84.1262,52.2402],[84.1276,52.2351],[84.1284,52.1771],[84.1459,52.1356],[84.188,52.108],[84.3145,52.075],[84.3071,52.0692],[83.8765,52.0383],[83.6463,52.0759],[83.5774,52.0765],[83.4996,52.0609],[82.994,51.8273],[82.8804,51.8005],[82.7837,51.8066],[82.692,51.7974],[82.6028,51.7684],[82.3461,51.6362],[82.3286,51.6212],[82.3162,51.5985],[82.3086,51.5641],[82.3054,51.5142],[82.3134,51.4577],[82.3355,51.4057],[82.4607,51.2282],[82.4749,51.1878],[82.4717,51.1474],[82.4502,51.0596],[82.4419,50.9669],[82.4484,50.8817],[82.4578,50.8458],[82.5132,50.7553],[82.6023,50.6596],[82.6304,50.6428],[82.6604,50.6401],[82.7221,50.6476],[82.7512,50.6433],[82.7776,50.6238],[82.8002,50.5817],[82.8377,50.4221],[82.9697,50.1368],[82.9991,50.0939],[83.0252,50.0559],[83.0379,50.058],[83.0523,50.0574],[83.0706,50.0528],[83.0921,50.0421],[83.1155,50.0233],[83.1399,49.994],[83.1809,49.9131],[83.1854,49.8886],[83.1827,49.872],[83.178,49.8566],[83.176,49.8358],[83.1819,49.8027],[83.405,49.2698],[83.405,49.1468],[83.5215,48.9313],[83.5203,48.9072],[83.5095,48.8529],[83.4971,48.8225],[83.4784,48.7945],[83.4519,48.772],[83.3035,48.7221],[83.2329,48.6763],[83.093,48.5177],[83.0801,48.4966],[83.0778,48.4885],[83.08,48.4868],[83.0809,48.4854],[82.7954,48.1385],[82.7578,48.1105],[82.7413,48.0982],[82.678,48.0726],[81.33,47.9944],[81.2752,47.9775],[81.2429,47.9508],[81.2288,47.9199],[81.2146,47.8398],[81.2058,47.8148],[81.1879,47.7891],[81.1569,47.7623],[80.5302,47.3881],[80.3655,47.3226],[80.1071,47.3218],[77.9783,47.3158],[76.0726,47.3103],[75.9786,47.2813],[75.4555,47.2954],[75.4088,47.2878],[75.1209,47.1799],[75.1118,47.2112],[75.0828,47.2406],[75.0255,47.2633],[73.5379,47.2808],[73.4904,47.2693],[73.4546,47.2503],[73.3296,47.1459],[73.2886,47.1278],[73.2383,47.1188],[72.8556,47.1754],[72.6721,47.1533],[72.0929,46.9416],[72.0216,46.9274],[71.9456,46.9276],[71.7586,46.9651],[69.525,46.876],[67.5659,46.7979],[66.4235,47.0498],[66.2225,47.1457],[66.0637,47.1802],[66.0214,47.1964],[65.6187,47.4964],[65.5803,47.5172],[65.5481,47.5414],[65.5272,47.5701],[65.4876,47.6578],[65.4671,47.6787],[65.4354,47.6912],[65.2127,47.6881],[65.065,47.7078],[65.0321,47.7207],[64.991,47.7537],[64.9191,47.7814],[63.6138,47.9645],[63.517,47.9514],[63.2802,47.9699],[63.0248,47.9326],[62.9725,47.9408],[62.8444,47.9851],[62.7866,47.9881],[62.5807,47.94],[62.5232,47.943],[62.3981,47.9851],[62.3518,47.9881],[62.3145,47.9791],[62.247,47.949],[62.2063,47.94],[62.1543,47.943],[62.0217,47.9851],[61.9796,47.9881],[61.9509,47.9791],[61.8965,47.949],[61.853,47.94],[61.7864,47.943],[61.5866,47.9829],[61.5128,47.9807],[61.4589,47.9652],[61.3801,47.9257],[61.3399,47.9177],[61.2891,47.9278],[61.1531,48.0118],[61.0365,48.1401],[61.004,48.1626],[60.7299,48.2341],[60.2982,48.2661],[60.2352,48.2468],[59.7078,48.2719],[59.5476,48.2484],[59.4933,48.2503],[59.3715,48.2744],[59.3421,48.2735],[59.3264,48.2648],[59.312,48.2529],[59.2861,48.2422],[59.236,48.2373],[58.7623,48.2847],[58.499,48.241],[58.4199,48.2437],[58.3143,48.2628],[58.212,48.2989],[58.1437,48.3443],[58.042,48.4697],[58.0094,48.4857],[57.9608,48.4775],[57.0664,47.9395],[57.044,47.9199],[57.026,47.8915],[57.0116,47.8806],[56.4362,47.7961],[56.3875,47.7809],[56.3453,47.7607],[56.2761,47.7138],[56.2485,47.71],[56.1759,47.7366],[56.1494,47.7379],[56.1189,47.7252],[56.0827,47.6926],[56.0542,47.6531],[56.0438,47.6236],[56.0446,47.6024],[56.0521,47.5796],[56.0454,47.5752],[55.9341,47.5718],[55.9176,47.5678],[55.9169,47.5617],[55.9213,47.554],[55.9203,47.5452],[55.9031,47.5358],[55.6309,47.4996],[55.6199,47.4951],[54.9583,47.4553],[54.9473,47.413],[54.9625,47.3593],[54.9519,47.3403],[54.9049,47.3215],[54.0994,47.1856],[54.0454,47.1765],[54.0444,47.1751],[54.0337,47.1659],[54.0445,47.2788],[54.0553,47.3916],[54.0062,47.5881],[53.9408,47.6863],[53.908,47.9645],[53.7771,48.161],[53.5315,48.3574],[53.286,48.5702],[53.1223,48.8649],[52.713,48.9794],[52.2219,49.0941],[52.0747,49.4705],[52.0419,49.8306],[52.0419,50.4199],[52.1565,50.9274],[52.2875,51.3038],[52.4618,51.3747],[52.5015,51.3909],[52.5968,51.4296],[52.6123,51.4372],[52.6669,51.4536],[52.8016,51.498],[53.0568,51.5821],[53.4303,51.5693],[53.5315,51.5658],[53.6707,51.5658],[53.778,51.5658],[55.332,51.5657],[55.9611,51.6248],[56.4805,51.4197],[56.8219,51.3715],[56.8813,51.3632],[57.0714,51.3363],[57.1047,51.3316],[57.1296,51.3207],[57.3091,51.242],[57.3329,51.2315],[57.7957,51.1247],[58.2446,51.1321],[58.3576,51.1716],[58.4437,51.2016],[58.7328,51.3026],[58.6336,51.5914],[58.6334,51.5931],[58.6278,51.6534],[58.6273,51.6588],[58.6297,51.6803],[58.6316,51.6985],[58.6339,51.7197],[58.6683,51.789],[58.9152,52.2867],[59.0315,52.5211],[59.0657,52.59],[59.0609,52.6357],[59.0381,52.6743],[58.9295,52.7741],[58.9199,52.7872],[58.9022,52.8113],[58.8908,52.8552],[58.8935,52.8839],[58.8959,52.9082],[58.8975,52.9254],[58.8998,52.949],[58.9284,53.0302],[58.97,53.099],[59.0089,53.139],[59.0238,53.1543],[59.0673,53.199],[59.1519,53.2553],[59.0843,53.3217],[59.0358,53.3695],[59.0175,53.5109],[59.1354,53.8129],[59.1456,53.839],[59.1468,53.9215],[59.1472,53.9499],[59.1506,54.1907],[59.1506,54.1955],[59.1514,54.2495],[59.1515,54.2536],[59.1517,54.2739],[59.1519,54.2822],[59.2238,54.3402],[59.2692,54.3767],[59.2929,54.3958],[59.3074,54.4076],[59.3925,54.4762],[59.4091,54.4895],[62.6592,54.9069],[62.7129,54.897],[62.731,54.8842],[62.7301,54.8766]]]}},{"type":"Feature","properties":{"slug":"north-china-plain","name":"North China Plain","family":"plains-grasslands","kind":"plain","source":"Natural Earth 10m geography_regions_polys"},"geometry":{"type":"MultiPolygon","coordinates":[[[[117.625,39.4061],[117.5411,39.053],[117.5274,38.905],[117.5598,38.7067],[117.5538,38.6915],[117.5578,38.6251],[117.5807,38.5782],[117.6016,38.4508],[117.6224,38.4131],[117.6572,38.385],[117.7205,38.3587],[117.7667,38.3117],[117.9094,38.2379],[117.9452,38.2009],[118.033,38.1731],[118.1261,38.1648],[118.5354,38.0962],[118.5341,38.0599],[118.5652,38.0635],[118.756,38.1266],[118.8,38.1267],[118.8574,38.0923],[118.9467,38.0201],[118.9725,37.9913],[119.0275,37.904],[119.0356,37.8092],[119.0385,37.7765],[119.0703,37.7486],[119.0735,37.7404],[119.012,37.6511],[118.9908,37.6414],[118.9829,37.6089],[118.9417,37.549],[118.923,37.4959],[118.9185,37.4381],[118.9284,37.3685],[118.9923,37.1664],[119.1442,34.9213],[119.1699,34.8635],[119.1653,34.8488],[119.201,34.7484],[119.3204,34.7492],[119.4732,34.6749],[119.5829,34.5822],[119.7697,34.4962],[119.9155,34.4598],[120.1226,34.3591],[120.2273,34.2874],[120.2715,34.2403],[120.3106,34.1833],[120.3721,34.0237],[120.4257,33.8663],[120.4581,33.8008],[120.5016,33.6879],[120.5048,33.6382],[120.6067,33.5024],[120.6208,33.4795],[120.7345,33.2366],[120.8682,33.0212],[120.872,33.0103],[120.8736,33.0002],[120.881,32.814],[120.853,32.7641],[120.8532,32.6614],[120.9899,32.567],[121.2934,32.4573],[121.3417,32.425],[121.3752,32.395],[121.3853,32.3794],[121.3973,32.348],[121.4018,32.3233],[121.4039,32.2062],[121.4508,32.1533],[121.4708,32.1371],[121.4797,32.1273],[121.5003,32.1144],[121.5217,32.1086],[121.5236,32.1085],[121.6742,32.051],[121.7511,31.9929],[121.7745,31.9661],[121.8589,31.7033],[121.7636,31.6995],[121.6809,31.7122],[121.352,31.8588],[121.2664,31.8627],[121.1458,31.8423],[120.9735,31.8694],[120.7917,32.0317],[120.6605,32.0811],[120.5201,32.1059],[120.1841,31.9662],[120.0987,31.976],[120.0739,31.9603],[120.0359,31.9363],[120.1916,31.9063],[120.3475,31.9521],[120.4972,32.0198],[120.7155,31.9837],[120.7522,31.9229],[120.7878,31.8198],[120.9375,31.7502],[121.0554,31.7194],[121.2049,31.6281],[121.351,31.4854],[121.6606,31.3197],[121.7623,31.1924],[121.8108,30.8882],[121.7694,30.8704],[121.6752,30.8638],[121.5275,30.841],[121.4545,30.8065],[121.4392,30.806],[121.3963,30.7913],[121.3735,30.773],[121.3639,30.7509],[121.3627,30.7433],[121.31,30.6997],[120.9977,30.5583],[120.9689,30.5154],[120.9251,30.4683],[120.8684,30.3781],[120.8267,30.3573],[120.7684,30.3702],[120.7456,30.369],[120.63,30.3909],[120.4498,30.3878],[120.2455,30.2835],[120.2332,30.2734],[120.2064,30.2735],[120.1445,30.2999],[120.0942,30.3628],[120.0767,30.4349],[120.0906,30.6729],[120.0741,30.7481],[120.0256,30.8156],[119.9319,30.8719],[119.38,31.0444],[117.9794,30.9537],[117.7437,30.8483],[117.7127,30.8408],[117.6802,30.8413],[117.6445,30.8515],[117.6035,30.8733],[116.8573,31.6428],[116.6162,31.8184],[116.5364,31.8561],[116.0862,31.925],[116.0132,31.9581],[115.8856,32.07],[115.7819,32.1157],[115.0333,32.2944],[114.6384,32.5163],[114.4766,32.6581],[113.5424,33.934],[113.0964,34.9646],[113.0931,35.0559],[113.179,35.1306],[114.0704,35.4298],[114.1657,35.5095],[114.5186,36.3911],[114.5274,36.4948],[114.5205,36.549],[114.4934,36.6317],[114.4133,36.7571],[114.4049,36.7701],[114.3955,36.7997],[114.3897,36.837],[114.3889,36.8745],[114.4107,37.0272],[114.4456,37.2712],[114.4026,37.908],[114.359,38.5526],[114.396,38.8538],[114.4358,38.9706],[114.4536,38.9981],[114.5921,39.1383],[114.6088,39.1723],[114.6332,39.2627],[114.6502,39.5142],[114.6672,39.5828],[114.7046,39.6394],[114.7717,39.6815],[114.8775,39.7064],[115.0524,39.7053],[115.6738,39.5002],[115.7409,39.5021],[115.7976,39.5203],[115.8469,39.5555],[115.8914,39.608],[116.1456,40.06],[116.3124,40.236],[116.4089,40.2988],[116.513,40.3361],[116.6237,40.3414],[116.7018,40.3198],[116.7759,40.277],[117.1824,39.8731],[117.4878,39.6998],[117.5488,39.6502],[117.5951,39.5881],[117.622,39.5084],[117.625,39.4061]]],[[[121.855,31.4896],[121.7805,31.4638],[121.5199,31.5496],[121.3364,31.6438],[121.2269,31.7581],[121.2111,31.8054],[121.339,31.7974],[121.4642,31.7564],[121.4918,31.6937],[121.5423,31.6739],[121.5766,31.6373],[121.8083,31.5521],[121.8437,31.5264],[121.8599,31.4972],[121.855,31.4896]]]]}},{"type":"Feature","properties":{"slug":"indo-gangetic-plain","name":"Indo-Gangetic Plain","family":"plains-grasslands","kind":"plain","source":"hand outline (see _geo_base.HAND_POLYGONS)"},"geometry":{"type":"Polygon","coordinates":[[[67.0,25.5],[68.5,27.5],[71.5,30.5],[74.5,32.5],[77.5,31.0],[80.0,29.5],[83.0,27.5],[86.0,26.5],[89.0,25.8],[91.5,25.0],[92.0,23.5],[90.5,22.0],[88.0,21.8],[85.5,24.0],[82.0,25.5],[78.0,27.0],[75.0,28.5],[72.0,26.5],[69.0,24.0],[67.0,25.5]]]}},{"type":"Feature","properties":{"slug":"llanos","name":"Llanos","family":"plains-grasslands","kind":"grassland","source":"Natural Earth 10m geography_regions_polys"},"geometry":{"type":"Polygon","coordinates":[[[-64.2463,7.9673],[-64.6908,7.8153],[-65.7256,7.8457],[-65.7479,7.8463],[-65.8902,7.8505],[-66.1242,7.6973],[-66.9133,7.1802],[-67.3743,6.1536],[-67.6894,5.4517],[-67.9779,5.4835],[-68.9504,5.3619],[-70.3364,4.5109],[-71.4305,3.66],[-72.5577,2.6294],[-73.1324,2.8576],[-73.6324,3.5451],[-73.716,3.66],[-73.6161,3.9347],[-73.5758,3.9792],[-72.6005,5.0562],[-72.4431,5.2299],[-71.9228,5.8045],[-71.83,6.0712],[-71.7592,6.2746],[-71.7486,6.305],[-71.7002,6.4443],[-71.6405,6.6158],[-71.7816,7.2861],[-71.3183,7.7494],[-70.9584,8.1093],[-70.8644,8.2033],[-70.8298,8.2266],[-70.5914,8.3869],[-69.4853,9.1306],[-67.6206,9.5837],[-66.9133,9.7556],[-66.6034,9.7643],[-64.4086,9.8261],[-64.2438,9.842],[-63.3893,9.9241],[-62.5741,10.0025],[-61.9744,8.6619],[-63.3503,8.2739],[-64.2463,7.9673]]]}},{"type":"Feature","properties":{"slug":"campos","name":"Campos","family":"plains-grasslands","kind":"grassland","source":"hand outline (see _geo_base.HAND_POLYGONS)"},"geometry":{"type":"Polygon","coordinates":[[[-57.6,-30.2],[-55.5,-28.2],[-53.0,-28.0],[-51.0,-29.0],[-49.8,-30.5],[-50.5,-32.0],[-52.0,-33.5],[-53.5,-34.5],[-55.0,-34.0],[-57.0,-32.0],[-57.6,-30.2]]]}},{"type":"Feature","properties":{"slug":"veld","name":"Veld","family":"plains-grasslands","kind":"grassland","source":"hand outline (see _geo_base.HAND_POLYGONS)"},"geometry":{"type":"Polygon","coordinates":[[[20.0,-24.5],[24.0,-22.0],[28.0,-22.2],[31.0,-23.5],[31.5,-26.0],[30.0,-28.5],[28.0,-30.5],[25.5,-31.0],[22.5,-30.0],[19.5,-28.0],[18.0,-26.0],[20.0,-24.5]]]}}]}